[{"OBJECT_NAME":"STARLINK-30346","OBJECT_ID":"2023-129G","EPOCH":"2026-03-09T03:36:44.509824","MEAN_MOTION":15.26732251,"ECCENTRICITY":0.00018827,"INCLINATION":43.0061,"RA_OF_ASC_NODE":120.6543,"ARG_OF_PERICENTER":251.8694,"MEAN_ANOMALY":108.1953,"EPHEMERIS_TYPE":0,"CLASSIFICATION_TYPE":"U","NORAD_CAT_ID":57704,"ELEMENT_SET_NO":999,"REV_AT_EPOCH":14046,"BSTAR":3.9428031e-5,"MEAN_MOTION_DOT":7.97e-6,"MEAN_MOTION_DDOT":0},{"OBJECT_NAME":"OBJECT M","OBJECT_ID":"2024-205M","EPOCH":"2026-03-09T22:23:47.520096","MEAN_MOTION":15.27663844,"ECCENTRICITY":0.00036602,"INCLINATION":97.3915,"RA_OF_ASC_NODE":144.193,"ARG_OF_PERICENTER":310.2554,"MEAN_ANOMALY":49.8364,"EPHEMERIS_TYPE":0,"CLASSIFICATION_TYPE":"U","NORAD_CAT_ID":61905,"ELEMENT_SET_NO":999,"REV_AT_EPOCH":7334,"BSTAR":0.00036391974,"MEAN_MOTION_DOT":9.771e-5,"MEAN_MOTION_DDOT":0}]
